FENGYUN 1C DEB          
1 30707U 99025ARR 17344.54285890  .00000491  00000-0  29488-3 0  9990
2 30707  99.4424 191.8541 0034986 334.8084  78.4513 14.11704536554734
